
# Worst residual: 5.45 km
# MJD 58568.000000 (2019 Mar 26  0:00)
1977-093E = NORAD 32705 = Blok SO-L
1 32705U 77093E   19085.49919926  .00000000  00000-0  00000-0 0  3607
2 32705 076.0653 308.7186 7523606 227.6538 276.8862 00.25804903    01

# Worst residual: 22.80 km
# MJD 58569.000000 (2019 Mar 27  0:00)
1977-093E = NORAD 32705 = Blok SO-L
1 32705U 77093E   19086.49919926  .00000000  00000-0  00000-0 0  3608
2 32705 076.0380 308.6764 7521289 227.6203 009.8426 00.25845272    07

# Worst residual: 4.38 km
# MJD 58570.000000 (2019 Mar 28  0:00)
1977-093E = NORAD 32705 = Blok SO-L
1 32705U 77093E   19087.49919926  .00000000  00000-0  00000-0 0  3609
2 32705 076.0132 308.6435 7530006 227.5714 102.8172 00.25820632    05

# Worst residual: 5.76 km
# MJD 58571.000000 (2019 Mar 29  0:00)
1977-093E = NORAD 32705 = Blok SO-L
1 32705U 77093E   19088.49919926  .00000000  00000-0  00000-0 0  3600
2 32705 075.9914 308.6135 7527759 227.5506 195.8622 00.25808798    09

# Worst residual: 5.21 km
# MJD 58572.000000 (2019 Mar 30  0:00)
1977-093E = NORAD 32705 = Blok SO-L
1 32705U 77093E   19089.49919926  .00000000  00000-0  00000-0 0  3601
2 32705 075.9735 308.5956 7525778 227.4699 288.9519 00.25780212    00

# Worst residual: 16.86 km
# MJD 58573.000000 (2019 Mar 31  0:00)
1977-093E = NORAD 32705 = Blok SO-L
1 32705U 77093E   19090.49919926  .00000000  00000-0  00000-0 0  3603
2 32705 075.9462 308.5648 7527013 227.4659 021.8828 00.25826515    09

# Worst residual: 4.49 km
# MJD 58574.000000 (2019 Apr  1  0:00)
1977-093E = NORAD 32705 = Blok SO-L
1 32705U 77093E   19091.49919926  .00000000  00000-0  00000-0 0  3604
2 32705 075.8914 308.5214 7535229 227.4254 114.8174 00.25812440    07

# Worst residual: 6.22 km
# MJD 58575.000000 (2019 Apr  2  0:00)
1977-093E = NORAD 32705 = Blok SO-L
1 32705U 77093E   19092.49919926  .00000000  00000-0  00000-0 0  3605
2 32705 075.8710 308.4958 7535860 227.3938 207.8564 00.25807128    07

# Worst residual: 3.86 km
# MJD 58576.000000 (2019 Apr  3  0:00)
1977-093E = NORAD 32705 = Blok SO-L
1 32705U 77093E   19093.49919926  .00000000  00000-0  00000-0 0  3606
2 32705 075.8620 308.4947 7538278 227.3343 300.9198 00.25791313    07

# Worst residual: 14.53 km
# MJD 58577.000000 (2019 Apr  4  0:00)
1977-093E = NORAD 32705 = Blok SO-L
1 32705U 77093E   19094.49919926  .00000000  00000-0  00000-0 0  3607
2 32705 075.8415 308.4596 7539609 227.3060 033.9005 00.25830842    05

# Worst residual: 3.60 km
# MJD 58578.000000 (2019 Apr  5  0:00)
1977-093E = NORAD 32705 = Blok SO-L
1 32705U 77093E   19095.49919926  .00000000  00000-0  00000-0 0  3608
2 32705 075.8076 308.4267 7542995 227.2933 126.8870 00.25816731    06

# Worst residual: 2.56 km
# MJD 58579.000000 (2019 Apr  6  0:00)
1977-093E = NORAD 32705 = Blok SO-L
1 32705U 77093E   19096.49919926  .00000000  00000-0  00000-0 0  3609
2 32705 075.8146 308.4280 7544451 227.2635 219.9067 00.25813383    09

# Worst residual: 20.16 km
# MJD 58580.000000 (2019 Apr  7  0:00)
1977-093E = NORAD 32705 = Blok SO-L
1 32705U 77093E   19097.49919926  .00000000  00000-0  00000-0 0  3600
2 32705 075.7925 308.3981 7547575 227.2812 312.8245 00.25843049    00

# Worst residual: 16.28 km
# MJD 58581.000000 (2019 Apr  8  0:00)
1977-093E = NORAD 32705 = Blok SO-L
1 32705U 77093E   19098.49919926  .00000000  00000-0  00000-0 0  3601
2 32705 075.7784 308.3639 7549059 227.1763 045.9176 00.25838231    00

# Worst residual: 3.90 km
# MJD 58582.000000 (2019 Apr  9  0:00)
1977-093E = NORAD 32705 = Blok SO-L
1 32705U 77093E   19099.49919926  .00000000  00000-0  00000-0 0  3602
2 32705 075.7717 308.3435 7555303 227.1769 138.7931 00.25808581    00

# Worst residual: 2.91 km
# MJD 58583.000000 (2019 Apr 10  0:00)
1977-093E = NORAD 32705 = Blok SO-L
1 32705U 77093E   19100.49919926  .00000000  00000-0  00000-0 0  3605
2 32705 075.7741 308.3414 7560548 227.1532 231.7657 00.25813039    02

# Worst residual: 17.54 km
# MJD 58584.000000 (2019 Apr 11  0:00)
1977-093E = NORAD 32705 = Blok SO-L
1 32705U 77093E   19101.49919926  .00000000  00000-0  00000-0 0  3606
2 32705 075.7502 308.3129 7562387 227.1496 324.7126 00.25835633    00

# Worst residual: 21.68 km
# MJD 58585.000000 (2019 Apr 12  0:00)
1977-093E = NORAD 32705 = Blok SO-L
1 32705U 77093E   19102.49919926  .00000000  00000-0  00000-0 0  3607
2 32705 075.7204 308.2814 7567254 227.0504 057.8147 00.25851176    03

# Worst residual: 5.37 km
# MJD 58586.000000 (2019 Apr 13  0:00)
1977-093E = NORAD 32705 = Blok SO-L
1 32705U 77093E   19103.49919926  .00000000  00000-0  00000-0 0  3608
2 32705 075.6920 308.2474 7571236 227.1005 150.5709 00.25800251    04

# Worst residual: 1.94 km
# MJD 58587.000000 (2019 Apr 14  0:00)
1977-093E = NORAD 32705 = Blok SO-L
1 32705U 77093E   19104.49919926  .00000000  00000-0  00000-0 0  3609
2 32705 075.6785 308.2302 7573080 227.0826 243.4871 00.25796584    07

# Worst residual: 17.47 km
# MJD 58588.000000 (2019 Apr 15  0:00)
1977-093E = NORAD 32705 = Blok SO-L
1 32705U 77093E   19105.49919926  .00000000  00000-0  00000-0 0  3600
2 32705 075.6539 308.1973 7578758 227.0929 336.4406 00.25812575    04

# Worst residual: 15.02 km
# MJD 58589.000000 (2019 Apr 16  0:00)
1977-093E = NORAD 32705 = Blok SO-L
1 32705U 77093E   19106.49919926  .00000000  00000-0  00000-0 0  3601
2 32705 075.6245 308.1656 7583188 227.0332 069.4908 00.25839359    06

# Worst residual: 6.33 km
# MJD 58590.000000 (2019 Apr 17  0:00)
1977-093E = NORAD 32705 = Blok SO-L
1 32705U 77093E   19107.49919926  .00000000  00000-0  00000-0 0  3602
2 32705 075.6041 308.1373 7585084 227.0792 162.2618 00.25800576    02

# Worst residual: 6.92 km
# MJD 58591.000000 (2019 Apr 18  0:00)
1977-093E = NORAD 32705 = Blok SO-L
1 32705U 77093E   19108.49919926  .00000000  00000-0  00000-0 0  3603
2 32705 075.5816 308.1089 7589050 227.0988 255.0546 00.25810341    01

# Worst residual: 26.32 km
# MJD 58592.000000 (2019 Apr 19  0:00)
1977-093E = NORAD 32705 = Blok SO-L
1 32705U 77093E   19109.49919926  .00000000  00000-0  00000-0 0  3604
2 32705 075.5482 308.0415 7587674 227.1075 347.9600 00.25858540    05

# Worst residual: 8.53 km
# MJD 58593.000000 (2019 Apr 20  0:00)
1977-093E = NORAD 32705 = Blok SO-L
1 32705U 77093E   19110.49919926  .00000000  00000-0  00000-0 0  3606
2 32705 075.5146 308.0072 7594691 227.0555 081.0127 00.25829672    04

# Worst residual: 3.20 km
# MJD 58594.000000 (2019 Apr 21  0:00)
1977-093E = NORAD 32705 = Blok SO-L
1 32705U 77093E   19111.49919926  .00000000  00000-0  00000-0 0  3607
2 32705 075.4687 307.9594 7594174 227.0778 173.9222 00.25808022    06

# Worst residual: 7.37 km
# MJD 58595.000000 (2019 Apr 22  0:00)
1977-093E = NORAD 32705 = Blok SO-L
1 32705U 77093E   19112.49919926  .00000000  00000-0  00000-0 0  3608
2 32705 075.4207 307.8948 7594703 227.0812 266.8087 00.25809468    09
